[{"OBJECT_NAME":"GAOFEN-1 02","OBJECT_ID":"2018-031A","EPOCH":"2026-04-04T07:01:36.998112","MEAN_MOTION":14.76454579,"ECCENTRICITY":0.00019899,"INCLINATION":98.0594,"RA_OF_ASC_NODE":157.0023,"ARG_OF_PERICENTER":223.8631,"MEAN_ANOMALY":136.2421,"EPHEMERIS_TYPE":0,"CLASSIFICATION_TYPE":"U","NORAD_CAT_ID":43259,"ELEMENT_SET_NO":999,"REV_AT_EPOCH":43179,"BSTAR":3.9888222e-5,"MEAN_MOTION_DOT":2.26e-6,"MEAN_MOTION_DDOT":0},{"OBJECT_NAME":"GAOFEN-1 03","OBJECT_ID":"2018-031B","EPOCH":"2026-04-04T06:30:09.736128","MEAN_MOTION":14.76473075,"ECCENTRICITY":0.00016715,"INCLINATION":98.0582,"RA_OF_ASC_NODE":156.8463,"ARG_OF_PERICENTER":333.2522,"MEAN_ANOMALY":26.8601,"EPHEMERIS_TYPE":0,"CLASSIFICATION_TYPE":"U","NORAD_CAT_ID":43260,"ELEMENT_SET_NO":999,"REV_AT_EPOCH":43178,"BSTAR":0.00021419598,"MEAN_MOTION_DOT":1.439e-5,"MEAN_MOTION_DDOT":0},{"OBJECT_NAME":"GAOFEN-1 04","OBJECT_ID":"2018-031D","EPOCH":"2026-04-04T07:32:46.102272","MEAN_MOTION":14.76435726,"ECCENTRICITY":0.00012718,"INCLINATION":98.0596,"RA_OF_ASC_NODE":157.0718,"ARG_OF_PERICENTER":56.2049,"MEAN_ANOMALY":303.9282,"EPHEMERIS_TYPE":0,"CLASSIFICATION_TYPE":"U","NORAD_CAT_ID":43262,"ELEMENT_SET_NO":999,"REV_AT_EPOCH":43178,"BSTAR":0.00021066376,"MEAN_MOTION_DOT":1.414e-5,"MEAN_MOTION_DDOT":0},{"OBJECT_NAME":"SENTINEL-3B","OBJECT_ID":"2018-039A","EPOCH":"2026-04-04T04:51:49.368672","MEAN_MOTION":14.26736051,"ECCENTRICITY":0.00015392,"INCLINATION":98.6297,"RA_OF_ASC_NODE":162.7795,"ARG_OF_PERICENTER":112.5289,"MEAN_ANOMALY":247.6055,"EPHEMERIS_TYPE":0,"CLASSIFICATION_TYPE":"U","NORAD_CAT_ID":43437,"ELEMENT_SET_NO":999,"REV_AT_EPOCH":41357,"BSTAR":0.00010455247,"MEAN_MOTION_DOT":2.09e-6,"MEAN_MOTION_DDOT":0},{"OBJECT_NAME":"GAOFEN-5 01","OBJECT_ID":"2018-043A","EPOCH":"2026-04-03T20:51:47.065536","MEAN_MOTION":14.60551905,"ECCENTRICITY":0.00012068,"INCLINATION":98.451,"RA_OF_ASC_NODE":63.925,"ARG_OF_PERICENTER":355.1424,"MEAN_ANOMALY":4.9764,"EPHEMERIS_TYPE":0,"CLASSIFICATION_TYPE":"U","NORAD_CAT_ID":43461,"ELEMENT_SET_NO":999,"REV_AT_EPOCH":42084,"BSTAR":0.00016130088,"MEAN_MOTION_DOT":7.34e-6,"MEAN_MOTION_DDOT":0},{"OBJECT_NAME":"GAOFEN-6","OBJECT_ID":"2018-048A","EPOCH":"2026-04-04T06:36:16.208640","MEAN_MOTION":14.76645017,"ECCENTRICITY":0.00134659,"INCLINATION":97.7825,"RA_OF_ASC_NODE":159.6463,"ARG_OF_PERICENTER":60.14,"MEAN_ANOMALY":300.1147,"EPHEMERIS_TYPE":0,"CLASSIFICATION_TYPE":"U","NORAD_CAT_ID":43484,"ELEMENT_SET_NO":999,"REV_AT_EPOCH":42248,"BSTAR":0.00024659089,"MEAN_MOTION_DOT":1.677e-5,"MEAN_MOTION_DDOT":0},{"OBJECT_NAME":"GAOFEN-11 01","OBJECT_ID":"2018-063A","EPOCH":"2026-04-04T06:14:51.518400","MEAN_MOTION":15.53190444,"ECCENTRICITY":0.00027361,"INCLINATION":97.136,"RA_OF_ASC_NODE":161.4412,"ARG_OF_PERICENTER":230.4715,"MEAN_ANOMALY":129.6298,"EPHEMERIS_TYPE":0,"CLASSIFICATION_TYPE":"U","NORAD_CAT_ID":43585,"ELEMENT_SET_NO":999,"REV_AT_EPOCH":42886,"BSTAR":0.00057786628,"MEAN_MOTION_DOT":0.00036299,"MEAN_MOTION_DDOT":0},{"OBJECT_NAME":"ICESAT-2","OBJECT_ID":"2018-070A","EPOCH":"2026-04-04T05:30:00.873792","MEAN_MOTION":15.28251268,"ECCENTRICITY":0.0004296,"INCLINATION":91.9997,"RA_OF_ASC_NODE":271.0403,"ARG_OF_PERICENTER":73.6577,"MEAN_ANOMALY":286.5144,"EPHEMERIS_TYPE":0,"CLASSIFICATION_TYPE":"U","NORAD_CAT_ID":43613,"ELEMENT_SET_NO":999,"REV_AT_EPOCH":42116,"BSTAR":0.00023341452,"MEAN_MOTION_DOT":6.424e-5,"MEAN_MOTION_DDOT":0},{"OBJECT_NAME":"HYSIS","OBJECT_ID":"2018-096A","EPOCH":"2026-04-04T07:34:20.235936","MEAN_MOTION":14.78625548,"ECCENTRICITY":0.00014407,"INCLINATION":97.9892,"RA_OF_ASC_NODE":161.6234,"ARG_OF_PERICENTER":67.2844,"MEAN_ANOMALY":292.8519,"EPHEMERIS_TYPE":0,"CLASSIFICATION_TYPE":"U","NORAD_CAT_ID":43719,"ELEMENT_SET_NO":999,"REV_AT_EPOCH":39650,"BSTAR":0.00014521338,"MEAN_MOTION_DOT":1.011e-5,"MEAN_MOTION_DDOT":0},{"OBJECT_NAME":"KAZSTSAT","OBJECT_ID":"2018-099AB","EPOCH":"2026-04-03T15:22:06.907872","MEAN_MOTION":14.99705507,"ECCENTRICITY":0.0003282,"INCLINATION":97.4364,"RA_OF_ASC_NODE":128.9201,"ARG_OF_PERICENTER":288.96,"MEAN_ANOMALY":71.1268,"EPHEMERIS_TYPE":0,"CLASSIFICATION_TYPE":"U","NORAD_CAT_ID":43783,"ELEMENT_SET_NO":999,"REV_AT_EPOCH":40013,"BSTAR":0.00022887601,"MEAN_MOTION_DOT":2.769e-5,"MEAN_MOTION_DDOT":0},{"OBJECT_NAME":"SAUDISAT 5A","OBJECT_ID":"2018-102A","EPOCH":"2026-04-04T06:41:39.423264","MEAN_MOTION":15.27302358,"ECCENTRICITY":0.00107555,"INCLINATION":97.3133,"RA_OF_ASC_NODE":157.2992,"ARG_OF_PERICENTER":44.2459,"MEAN_ANOMALY":315.9639,"EPHEMERIS_TYPE":0,"CLASSIFICATION_TYPE":"U","NORAD_CAT_ID":43831,"ELEMENT_SET_NO":999,"REV_AT_EPOCH":40439,"BSTAR":0.00038382169,"MEAN_MOTION_DOT":0.00010213,"MEAN_MOTION_DDOT":0},{"OBJECT_NAME":"SAUDISAT 5B","OBJECT_ID":"2018-102C","EPOCH":"2026-04-04T05:53:44.870208","MEAN_MOTION":15.275965,"ECCENTRICITY":0.00115387,"INCLINATION":97.3234,"RA_OF_ASC_NODE":160.2034,"ARG_OF_PERICENTER":45.9613,"MEAN_ANOMALY":314.2575,"EPHEMERIS_TYPE":0,"CLASSIFICATION_TYPE":"U","NORAD_CAT_ID":43833,"ELEMENT_SET_NO":999,"REV_AT_EPOCH":40450,"BSTAR":0.00038617448,"MEAN_MOTION_DOT":0.00010371,"MEAN_MOTION_DDOT":0},{"OBJECT_NAME":"GAOFEN-10R","OBJECT_ID":"2019-066A","EPOCH":"2026-04-04T06:29:59.860608","MEAN_MOTION":14.8289112,"ECCENTRICITY":0.0006349,"INCLINATION":98.0441,"RA_OF_ASC_NODE":47.3488,"ARG_OF_PERICENTER":30.5215,"MEAN_ANOMALY":329.6366,"EPHEMERIS_TYPE":0,"CLASSIFICATION_TYPE":"U","NORAD_CAT_ID":44622,"ELEMENT_SET_NO":999,"REV_AT_EPOCH":35142,"BSTAR":0.00037377435,"MEAN_MOTION_DOT":2.976e-5,"MEAN_MOTION_DDOT":0},{"OBJECT_NAME":"CARTOSAT-3","OBJECT_ID":"2019-081A","EPOCH":"2026-04-04T06:11:55.906080","MEAN_MOTION":15.19281557,"ECCENTRICITY":0.00129185,"INCLINATION":97.4371,"RA_OF_ASC_NODE":157.287,"ARG_OF_PERICENTER":56.0296,"MEAN_ANOMALY":304.2164,"EPHEMERIS_TYPE":0,"CLASSIFICATION_TYPE":"U","NORAD_CAT_ID":44804,"ELEMENT_SET_NO":999,"REV_AT_EPOCH":35224,"BSTAR":0.00035808313,"MEAN_MOTION_DOT":7.504e-5,"MEAN_MOTION_DDOT":0},{"OBJECT_NAME":"GAOFEN-12 01","OBJECT_ID":"2019-082A","EPOCH":"2026-04-04T06:31:55.112160","MEAN_MOTION":14.8039759,"ECCENTRICITY":5.826e-5,"INCLINATION":97.8132,"RA_OF_ASC_NODE":102.5985,"ARG_OF_PERICENTER":79.3301,"MEAN_ANOMALY":280.7977,"EPHEMERIS_TYPE":0,"CLASSIFICATION_TYPE":"U","NORAD_CAT_ID":44819,"ELEMENT_SET_NO":999,"REV_AT_EPOCH":34315,"BSTAR":0.00010794191,"MEAN_MOTION_DOT":7.74e-6,"MEAN_MOTION_DDOT":0},{"OBJECT_NAME":"CSG-1","OBJECT_ID":"2019-092A","EPOCH":"2026-04-04T07:54:59.264640","MEAN_MOTION":14.82150533,"ECCENTRICITY":0.0001309,"INCLINATION":97.8883,"RA_OF_ASC_NODE":278.9986,"ARG_OF_PERICENTER":83.1283,"MEAN_ANOMALY":277.0079,"EPHEMERIS_TYPE":0,"CLASSIFICATION_TYPE":"U","NORAD_CAT_ID":44873,"ELEMENT_SET_NO":999,"REV_AT_EPOCH":34053,"BSTAR":0.00010774,"MEAN_MOTION_DOT":8.05e-6,"MEAN_MOTION_DDOT":0},{"OBJECT_NAME":"NEMO-HD","OBJECT_ID":"2020-061F","EPOCH":"2026-04-04T05:44:51.129024","MEAN_MOTION":15.43139382,"ECCENTRICITY":0.00010046,"INCLINATION":97.1987,"RA_OF_ASC_NODE":156.9937,"ARG_OF_PERICENTER":72.6799,"MEAN_ANOMALY":287.4559,"EPHEMERIS_TYPE":0,"CLASSIFICATION_TYPE":"U","NORAD_CAT_ID":46277,"ELEMENT_SET_NO":999,"REV_AT_EPOCH":31057,"BSTAR":0.00041104401,"MEAN_MOTION_DOT":0.00018134,"MEAN_MOTION_DDOT":0}]
