GAOFEN-1 02             
1 43259U 18031A   26094.29278933  .00000226  00000+0  39888-4 0  9999
2 43259  98.0594 157.0023 0001989 223.8631 136.2421 14.76454579431795
GAOFEN-1 03             
1 43260U 18031B   26094.27094602  .00001439  00000+0  21420-3 0  9997
2 43260  98.0582 156.8463 0001671 333.2522  26.8601 14.76473075431787
GAOFEN-1 04             
1 43262U 18031D   26094.31442248  .00001414  00000+0  21066-3 0  9996
2 43262  98.0596 157.0718 0001271  56.2049 303.9282 14.76435726431787
SENTINEL-3B             
1 43437U 18039A   26094.20265473  .00000209  00000+0  10455-3 0  9990
2 43437  98.6297 162.7795 0001539 112.5289 247.6055 14.26736051413571
GAOFEN-5 01             
1 43461U 18043A   26093.86929474  .00000734  00000+0  16130-3 0  9990
2 43461  98.4510  63.9250 0001206 355.1424   4.9764 14.60551905420849
GAOFEN-6                
1 43484U 18048A   26094.27518760  .00001677  00000+0  24659-3 0  9990
2 43484  97.7825 159.6463 0013465  60.1400 300.1147 14.76645017422484
GAOFEN-11 01            
1 43585U 18063A   26094.26031850  .00036299  00000+0  57787-3 0  9994
2 43585  97.1360 161.4412 0002736 230.4715 129.6298 15.53190444428863
ICESAT-2                
1 43613U 18070A   26094.22917678  .00006424  00000+0  23341-3 0  9997
2 43613  91.9997 271.0403 0004296  73.6577 286.5144 15.28251268421160
HYSIS                   
1 43719U 18096A   26094.31551199  .00001011  00000+0  14521-3 0  9991
2 43719  97.9892 161.6234 0001440  67.2844 292.8519 14.78625548396502
KAZSTSAT                
1 43783U 18099AB  26093.64035773  .00002769  00000+0  22888-3 0  9991
2 43783  97.4364 128.9201 0003282 288.9600  71.1268 14.99705507400131
SAUDISAT 5A             
1 43831U 18102A   26094.27892851  .00010213  00000+0  38382-3 0  9997
2 43831  97.3133 157.2992 0010755  44.2459 315.9639 15.27302358404390
SAUDISAT 5B             
1 43833U 18102C   26094.24565822  .00010371  00000+0  38617-3 0  9997
2 43833  97.3234 160.2034 0011538  45.9613 314.2575 15.27596500404503
GAOFEN-10R              
1 44622U 19066A   26094.27083172  .00002976  00000+0  37377-3 0  9994
2 44622  98.0441  47.3488 0006349  30.5215 329.6366 14.82891120351424
CARTOSAT-3              
1 44804U 19081A   26094.25828595  .00007504  00000+0  35808-3 0  9996
2 44804  97.4371 157.2870 0012918  56.0296 304.2164 15.19281557352242
GAOFEN-12 01            
1 44819U 19082A   26094.27216565  .00000774  00000+0  10794-3 0  9992
2 44819  97.8132 102.5985 0000582  79.3301 280.7977 14.80397590343158
CSG-1                   
1 44873U 19092A   26094.32985260  .00000805  00000+0  10774-3 0  9997
2 44873  97.8883 278.9986 0001309  83.1283 277.0079 14.82150533340537
NEMO-HD                 
1 46277U 20061F   26094.23948066  .00018134  00000+0  41104-3 0  9993
2 46277  97.1987 156.9937 0001004  72.6799 287.4559 15.43139382310579
